{
"type": "FeatureCollection",
"name": "addresses",
"crs": { "type": "name", "properties": { "name": "urn:ogc:def:crs:OGC:1.3:CRS84" } },
"features": [
{ "type": "Feature", "properties": { "osm_id": 367777760, "amenity": "arts_centre", "addr:housenumber": "20", "ele": "3", "name": "List Visual Arts Center", "operator": null, "shop": null, "office": null, "website": "https:\/\/listart.mit.edu", "addr:city": "Cambridge", "addr:postcode": "02139", "wikipedia": "en:List Visual Arts Center", "addr:state": "MA", "phone": "+1-617-253-4680", "wikidata": "Q6559283", "addr:street": "Ames Street", "tty": null, "healthcare:speciality": null, "amenity_1": null, "wheelchair": null, "urgent_care": null, "opening_hours": null, "region": null, "source_url": null, "type": null }, "geometry": { "type": "Point", "coordinates": [ -71.0877408, 42.3610207 ] } },
{ "type": "Feature", "properties": { "osm_id": 1884053775, "amenity": "doctors", "addr:housenumber": "25", "ele": null, "name": "MIT Medical", "operator": "Massachusetts Institute of Technology", "shop": null, "office": null, "website": "https:\/\/medical.mit.edu\/", "addr:city": "Cambridge", "addr:postcode": "02142", "wikipedia": null, "addr:state": null, "phone": "+1 617 253 4481", "wikidata": null, "addr:street": "Carleton Street", "tty": "+1 617 258 0656", "healthcare:speciality": "general", "amenity_1": "pharmacy", "wheelchair": "yes", "urgent_care": "yes", "opening_hours": "Mo-Fr 08:30-17:00", "region": null, "source_url": null, "type": null }, "geometry": { "type": "Point", "coordinates": [ -71.0865421, 42.3611856 ] } },
{ "type": "Feature", "properties": { "osm_id": 2501058123, "amenity": "theatre", "addr:housenumber": "2", "ele": null, "name": "Wong Auditorium", "operator": null, "shop": null, "office": null, "website": "http:\/\/studentlife.mit.edu\/cac\/event-services-spaces\/event-spaces\/wong-auditorium", "addr:city": "Cambridge", "addr:postcode": null, "wikipedia": null, "addr:state": null, "phone": null, "wikidata": null, "addr:street": "Amherst Street", "tty": null, "healthcare:speciality": null, "amenity_1": null, "wheelchair": "yes", "urgent_care": null, "opening_hours": null, "region": null, "source_url": null, "type": null }, "geometry": { "type": "Point", "coordinates": [ -71.084446, 42.3607842 ] } },
{ "type": "Feature", "properties": { "osm_id": 6117463844, "amenity": null, "addr:housenumber": "242", "ele": null, "name": "Kendall Flower Shop", "operator": null, "shop": "florist", "office": null, "website": "https:\/\/www.kendallflowers.com\/", "addr:city": "Cambridge", "addr:postcode": "02142", "wikipedia": null, "addr:state": "MA", "phone": null, "wikidata": null, "addr:street": "Main Street", "tty": null, "healthcare:speciality": null, "amenity_1": null, "wheelchair": null, "urgent_care": null, "opening_hours": null, "region": null, "source_url": null, "type": null }, "geometry": { "type": "Point", "coordinates": [ -71.0848166, 42.3621712 ] } },
{ "type": "Feature", "properties": { "osm_id": 257537379, "amenity": "library", "addr:housenumber": "238", "ele": null, "name": "Information Resource Center", "operator": null, "shop": null, "office": "Gradient Corporation", "website": null, "addr:city": "Cambridge", "addr:postcode": "02142", "wikipedia": null, "addr:state": "MA", "phone": null, "wikidata": null, "addr:street": "Main Street", "tty": null, "healthcare:speciality": null, "amenity_1": null, "wheelchair": null, "urgent_care": null, "opening_hours": null, "region": "Metrowest", "source_url": "http:\/\/mass.gov\/mgis\/libraries.htm", "type": "Special" }, "geometry": { "type": "Point", "coordinates": [ -71.0845626, 42.3621237 ] } }
]
}
