{
"type": "FeatureCollection",
"name": "addresses",
"crs": { "type": "name", "properties": { "name": "urn:ogc:def:crs:OGC:1.3:CRS84" } },
"features": [
{ "type": "Feature", "properties": { "osm_id": 4130928515, "amenity": "bar", "addr:housenumber": "12", "name": "Milk Room", "office": null, "building": null, "shop": null, "layer": null, "website": "http:\/\/www.lsdatcaa.com\/milk-room\/#openModal", "addr:city": "Chicago", "addr:postcode": "60603", "addr:state": "IL", "phone": "+1-312-792-3535", "addr:street": "South Michigan Avenue", "addr:unit": null, "cuisine": null, "drive_through": null, "delivery": null, "takeaway": null, "smoking": null, "facebook": null, "opening_hours": null, "payment:bitcoin": null, "wheelchair": null, "email": null, "outdoor_seating": null, "dispensing": null, "addr:street:prefix": null, "addr:street:name": null, "addr:street:type": null, "wikipedia": null, "wikidata": null, "level": null }, "geometry": { "type": "Point", "coordinates": [ -87.6248547, 41.8817549 ] } },
{ "type": "Feature", "properties": { "osm_id": 6284779075, "amenity": "bar", "addr:housenumber": "12", "name": "Drawing Room", "office": null, "building": null, "shop": null, "layer": null, "website": null, "addr:city": "Chicago", "addr:postcode": "60603", "addr:state": "IL", "phone": null, "addr:street": "South Michigan Avenue", "addr:unit": "2", "cuisine": null, "drive_through": null, "delivery": null, "takeaway": null, "smoking": null, "facebook": null, "opening_hours": null, "payment:bitcoin": null, "wheelchair": null, "email": null, "outdoor_seating": null, "dispensing": null, "addr:street:prefix": null, "addr:street:name": null, "addr:street:type": null, "wikipedia": null, "wikidata": null, "level": null }, "geometry": { "type": "Point", "coordinates": [ -87.6247891, 41.8817616 ] } },
{ "type": "Feature", "properties": { "osm_id": 3889639803, "amenity": "fast_food", "addr:housenumber": "12", "name": "Shake Shack", "office": null, "building": null, "shop": null, "layer": null, "website": null, "addr:city": "Chicago", "addr:postcode": null, "addr:state": null, "phone": null, "addr:street": "South Michigan Avenue", "addr:unit": null, "cuisine": "burger", "drive_through": "no", "delivery": "no", "takeaway": "yes", "smoking": "no", "facebook": null, "opening_hours": null, "payment:bitcoin": null, "wheelchair": null, "email": null, "outdoor_seating": null, "dispensing": null, "addr:street:prefix": null, "addr:street:name": null, "addr:street:type": null, "wikipedia": null, "wikidata": null, "level": null }, "geometry": { "type": "Point", "coordinates": [ -87.6247025, 41.8816017 ] } },
{ "type": "Feature", "properties": { "osm_id": 4994251648, "amenity": null, "addr:housenumber": "8", "name": "Scanlan Law Group", "office": "lawyer", "building": null, "shop": null, "layer": null, "website": "https:\/\/www.scanlanlawgroup.com\/", "addr:city": "Chicago", "addr:postcode": "60603", "addr:state": "IL", "phone": "+1-312-422-0343", "addr:street": "South Michigan Avenue", "addr:unit": "2700", "cuisine": null, "drive_through": null, "delivery": null, "takeaway": null, "smoking": null, "facebook": "https:\/\/www.facebook.com\/pg\/ScanlanLawGroup\/", "opening_hours": "Mo-Fr 09:00-17:30", "payment:bitcoin": null, "wheelchair": null, "email": null, "outdoor_seating": null, "dispensing": null, "addr:street:prefix": null, "addr:street:name": null, "addr:street:type": null, "wikipedia": null, "wikidata": null, "level": null }, "geometry": { "type": "Point", "coordinates": [ -87.6248873, 41.8818813 ] } },
{ "type": "Feature", "properties": { "osm_id": 6287294806, "amenity": "cafe", "addr:housenumber": "12", "name": "Fairgrounds Coffee and Tea", "office": null, "building": null, "shop": null, "layer": null, "website": "https:\/\/www.fairgrounds.cafe\/", "addr:city": "Chicago", "addr:postcode": "60603", "addr:state": "IL", "phone": "+1-312-448-9015", "addr:street": "South Michigan Avenue", "addr:unit": null, "cuisine": null, "drive_through": null, "delivery": null, "takeaway": null, "smoking": null, "facebook": null, "opening_hours": null, "payment:bitcoin": null, "wheelchair": null, "email": null, "outdoor_seating": null, "dispensing": null, "addr:street:prefix": null, "addr:street:name": null, "addr:street:type": null, "wikipedia": null, "wikidata": null, "level": null }, "geometry": { "type": "Point", "coordinates": [ -87.6247853, 41.8819015 ] } },
{ "type": "Feature", "properties": { "osm_id": 2560067669, "amenity": "arts_centre", "addr:housenumber": "8", "name": "Bert Green Fine Art", "office": null, "building": "office", "shop": null, "layer": null, "website": "https:\/\/bgfa.us\/", "addr:city": "Chicago", "addr:postcode": "60603", "addr:state": null, "phone": "+1-312-434-7544", "addr:street": "South Michigan Avenue", "addr:unit": "1220", "cuisine": null, "drive_through": null, "delivery": null, "takeaway": null, "smoking": null, "facebook": null, "opening_hours": null, "payment:bitcoin": "yes", "wheelchair": "yes", "email": null, "outdoor_seating": null, "dispensing": null, "addr:street:prefix": null, "addr:street:name": null, "addr:street:type": null, "wikipedia": null, "wikidata": null, "level": null }, "geometry": { "type": "Point", "coordinates": [ -87.6247088, 41.8819299 ] } },
{ "type": "Feature", "properties": { "osm_id": 5912122886, "amenity": "restaurant", "addr:housenumber": "79", "name": "Pokéworks", "office": null, "building": null, "shop": null, "layer": null, "website": null, "addr:city": null, "addr:postcode": "60602", "addr:state": null, "phone": "3128680261", "addr:street": "East Madison Street", "addr:unit": null, "cuisine": null, "drive_through": null, "delivery": null, "takeaway": null, "smoking": null, "facebook": null, "opening_hours": "Mo-Su 11:00-21:00", "payment:bitcoin": null, "wheelchair": null, "email": "innerloopcaters@pokeworks.com", "outdoor_seating": null, "dispensing": null, "addr:street:prefix": null, "addr:street:name": null, "addr:street:type": null, "wikipedia": null, "wikidata": null, "level": null }, "geometry": { "type": "Point", "coordinates": [ -87.6247902, 41.8820058 ] } },
{ "type": "Feature", "properties": { "osm_id": 6299484443, "amenity": "cafe", "addr:housenumber": "20", "name": "Peet’s Coffee", "office": null, "building": null, "shop": null, "layer": null, "website": "https:\/\/www.peets.com\/", "addr:city": "Chicago", "addr:postcode": "60602", "addr:state": "IL", "phone": "+1-312-489-5066", "addr:street": "North Michigan Avenue", "addr:unit": null, "cuisine": "coffee_shop", "drive_through": null, "delivery": null, "takeaway": null, "smoking": null, "facebook": null, "opening_hours": null, "payment:bitcoin": null, "wheelchair": null, "email": null, "outdoor_seating": null, "dispensing": null, "addr:street:prefix": null, "addr:street:name": null, "addr:street:type": null, "wikipedia": null, "wikidata": null, "level": null }, "geometry": { "type": "Point", "coordinates": [ -87.6247276, 41.8824296 ] } },
{ "type": "Feature", "properties": { "osm_id": 6318200251, "amenity": "cafe", "addr:housenumber": "3005", "name": "Le Pain Quotidien", "office": null, "building": null, "shop": null, "layer": null, "website": "https:\/\/www1.lepainquotidien.com\/us\/en\/locations\/604\/20-n-michigan-ave?utm_source=yelp&utm_medium=business-listing&utm_campaign=us-en-always-on-listing", "addr:city": "Chicago", "addr:postcode": "60602", "addr:state": "IL", "phone": "+1-312-488-1902", "addr:street": "North Michigan Avenue", "addr:unit": null, "cuisine": "french;american;breakfast;vegetarian;vegan", "drive_through": null, "delivery": null, "takeaway": null, "smoking": null, "facebook": null, "opening_hours": "Mo-Su 07:00-19:00", "payment:bitcoin": null, "wheelchair": null, "email": null, "outdoor_seating": null, "dispensing": null, "addr:street:prefix": null, "addr:street:name": null, "addr:street:type": null, "wikipedia": null, "wikidata": null, "level": null }, "geometry": { "type": "Point", "coordinates": [ -87.6247231, 41.8826022 ] } },
{ "type": "Feature", "properties": { "osm_id": 4856409372, "amenity": "restaurant", "addr:housenumber": "20", "name": "Remington’s", "office": null, "building": null, "shop": null, "layer": null, "website": "http:\/\/remingtonschicago.com\/", "addr:city": "Chicago", "addr:postcode": "60602", "addr:state": "IL", "phone": "+1-312-782-6000", "addr:street": "North Michigan Avenue", "addr:unit": null, "cuisine": null, "drive_through": null, "delivery": null, "takeaway": "yes", "smoking": null, "facebook": null, "opening_hours": null, "payment:bitcoin": null, "wheelchair": null, "email": null, "outdoor_seating": "yes", "dispensing": null, "addr:street:prefix": null, "addr:street:name": null, "addr:street:type": null, "wikipedia": null, "wikidata": null, "level": null }, "geometry": { "type": "Point", "coordinates": [ -87.6247212, 41.8827545 ] } },
{ "type": "Feature", "properties": { "osm_id": 357043874, "amenity": "pharmacy", "addr:housenumber": "30", "name": "Walgreens", "office": null, "building": null, "shop": null, "layer": null, "website": "https:\/\/www.walgreens.com\/locator\/walgreens-30+n+michigan+ave-chicago-il-60602\/id=9438", "addr:city": "Chicago", "addr:postcode": "60602", "addr:state": null, "phone": null, "addr:street": "North Michigan Avenue", "addr:unit": null, "cuisine": null, "drive_through": null, "delivery": null, "takeaway": null, "smoking": null, "facebook": null, "opening_hours": null, "payment:bitcoin": null, "wheelchair": "yes", "email": null, "outdoor_seating": null, "dispensing": "yes", "addr:street:prefix": null, "addr:street:name": null, "addr:street:type": null, "wikipedia": null, "wikidata": null, "level": null }, "geometry": { "type": "Point", "coordinates": [ -87.6247426, 41.8830264 ] } },
{ "type": "Feature", "properties": { "osm_id": 5684198500, "amenity": null, "addr:housenumber": "8", "name": "Sonik Hearing Care Services", "office": null, "building": null, "shop": "hearing_aids", "layer": null, "website": "https:\/\/sonikhearing.com", "addr:city": "Chicago", "addr:postcode": "60603", "addr:state": "IL", "phone": "+1-312-346-1136", "addr:street": "South Michigan Avenue", "addr:unit": "2212", "cuisine": null, "drive_through": null, "delivery": null, "takeaway": null, "smoking": null, "facebook": null, "opening_hours": "Mo 08:00-17:00; Tu 09:00-18:00; We-Th 08:00-18:00; Fr 09:00-16:00; Sa 09:00-13:00", "payment:bitcoin": null, "wheelchair": null, "email": null, "outdoor_seating": null, "dispensing": null, "addr:street:prefix": null, "addr:street:name": null, "addr:street:type": null, "wikipedia": null, "wikidata": null, "level": null }, "geometry": { "type": "Point", "coordinates": [ -87.6248025, 41.8830654 ] } },
{ "type": "Feature", "properties": { "osm_id": 3750517760, "amenity": "restaurant", "addr:housenumber": "11", "name": "The Park Grill", "office": null, "building": null, "shop": null, "layer": null, "website": null, "addr:city": null, "addr:postcode": null, "addr:state": null, "phone": null, "addr:street": "North Michigan Avenue", "addr:unit": null, "cuisine": null, "drive_through": null, "delivery": null, "takeaway": null, "smoking": null, "facebook": null, "opening_hours": null, "payment:bitcoin": null, "wheelchair": null, "email": null, "outdoor_seating": null, "dispensing": null, "addr:street:prefix": "North", "addr:street:name": "Michigan", "addr:street:type": "Avenue", "wikipedia": "en:Park Grill", "wikidata": "Q7137749", "level": null }, "geometry": { "type": "Point", "coordinates": [ -87.6236039, 41.8827072 ] } },
{ "type": "Feature", "properties": { "osm_id": 2427546347, "amenity": "bar", "addr:housenumber": "151", "name": "M Bar", "office": null, "building": null, "shop": null, "layer": "-1", "website": "http:\/\/mbarchicago.com\/", "addr:city": "Chicago", "addr:postcode": "60601", "addr:state": "IL", "phone": null, "addr:street": "North Michigan Avenue", "addr:unit": null, "cuisine": null, "drive_through": null, "delivery": null, "takeaway": null, "smoking": null, "facebook": null, "opening_hours": null, "payment:bitcoin": null, "wheelchair": null, "email": null, "outdoor_seating": null, "dispensing": null, "addr:street:prefix": null, "addr:street:name": null, "addr:street:type": null, "wikipedia": null, "wikidata": null, "level": "+1-312-929-3080" }, "geometry": { "type": "Point", "coordinates": [ -87.6241744, 41.8846595 ] } },
{ "type": "Feature", "properties": { "osm_id": 6291816768, "amenity": "restaurant", "addr:housenumber": "130", "name": "Giordano’s", "office": null, "building": null, "shop": null, "layer": null, "website": "https:\/\/giordanos.com\/locations\/prudential-plaza-millenium-park\/", "addr:city": "Chicago", "addr:postcode": "60601", "addr:state": "IL", "phone": "+1-312-616-1200", "addr:street": "East Randolph Street", "addr:unit": null, "cuisine": null, "drive_through": null, "delivery": null, "takeaway": null, "smoking": null, "facebook": null, "opening_hours": null, "payment:bitcoin": null, "wheelchair": null, "email": null, "outdoor_seating": null, "dispensing": null, "addr:street:prefix": null, "addr:street:name": null, "addr:street:type": null, "wikipedia": null, "wikidata": null, "level": null }, "geometry": { "type": "Point", "coordinates": [ -87.6231708, 41.8849499 ] } },
{ "type": "Feature", "properties": { "osm_id": 6303823312, "amenity": "bar", "addr:housenumber": "130", "name": "Tavern at the Park", "office": null, "building": null, "shop": null, "layer": null, "website": "https:\/\/tavernatthepark.com\/", "addr:city": "Chicago", "addr:postcode": "60601", "addr:state": "IL", "phone": "+1-312-552-0070", "addr:street": "East Randolph Street", "addr:unit": null, "cuisine": null, "drive_through": null, "delivery": null, "takeaway": null, "smoking": null, "facebook": null, "opening_hours": null, "payment:bitcoin": null, "wheelchair": null, "email": null, "outdoor_seating": null, "dispensing": null, "addr:street:prefix": null, "addr:street:name": null, "addr:street:type": null, "wikipedia": null, "wikidata": null, "level": null }, "geometry": { "type": "Point", "coordinates": [ -87.6231505, 41.8850448 ] } },
{ "type": "Feature", "properties": { "osm_id": 6282658127, "amenity": null, "addr:housenumber": "201", "name": "Cinnabon", "office": null, "building": null, "shop": "bakery", "layer": null, "website": "https:\/\/www.cinnabon.com\/", "addr:city": "Chicago", "addr:postcode": null, "addr:state": "IL", "phone": null, "addr:street": "East Randolph Street", "addr:unit": null, "cuisine": null, "drive_through": null, "delivery": null, "takeaway": null, "smoking": null, "facebook": null, "opening_hours": null, "payment:bitcoin": null, "wheelchair": null, "email": null, "outdoor_seating": null, "dispensing": null, "addr:street:prefix": null, "addr:street:name": null, "addr:street:type": null, "wikipedia": null, "wikidata": null, "level": null }, "geometry": { "type": "Point", "coordinates": [ -87.6214285, 41.8841262 ] } },
{ "type": "Feature", "properties": { "osm_id": 6269133412, "amenity": "restaurant", "addr:housenumber": "340", "name": "Brown Bag Seafood", "office": null, "building": null, "shop": null, "layer": null, "website": "https:\/\/www.brownbagseafood.com\/home\/", "addr:city": "Chicago", "addr:postcode": "60601", "addr:state": "IL", "phone": "+1-312-496-3999", "addr:street": "Upper East Randolph Street", "addr:unit": null, "cuisine": null, "drive_through": null, "delivery": null, "takeaway": null, "smoking": null, "facebook": null, "opening_hours": null, "payment:bitcoin": null, "wheelchair": null, "email": null, "outdoor_seating": null, "dispensing": null, "addr:street:prefix": null, "addr:street:name": null, "addr:street:type": null, "wikipedia": null, "wikidata": null, "level": null }, "geometry": { "type": "Point", "coordinates": [ -87.618782, 41.8848467 ] } },
{ "type": "Feature", "properties": { "osm_id": 1854704954, "amenity": "restaurant", "addr:housenumber": "333", "name": "Yum Cha Dim Sum Parlor", "office": null, "building": null, "shop": null, "layer": null, "website": "http:\/\/www.yumchachicago.com", "addr:city": "Chicago", "addr:postcode": "60601", "addr:state": null, "phone": "+1 312 946-8885", "addr:street": "East Randolph Street", "addr:unit": null, "cuisine": "chinese", "drive_through": null, "delivery": null, "takeaway": null, "smoking": null, "facebook": null, "opening_hours": null, "payment:bitcoin": null, "wheelchair": null, "email": null, "outdoor_seating": null, "dispensing": null, "addr:street:prefix": null, "addr:street:name": null, "addr:street:type": null, "wikipedia": null, "wikidata": null, "level": null }, "geometry": { "type": "Point", "coordinates": [ -87.6191155, 41.8850849 ] } }
]
}
