{
"type": "FeatureCollection",
"name": "addresses",
"crs": { "type": "name", "properties": { "name": "urn:ogc:def:crs:OGC:1.3:CRS84" } },
"features": [
{ "type": "Feature", "properties": { "osm_id": 3792172183, "shop": "vacant", "addr:housenumber": "16", "office": null, "name": null, "amenity": null, "brand": null, "operator": null, "bicycle": null, "addr:postcode": "70563", "addr:street": "Möhringer Landstraße", "addr:city": "Stuttgart", "old_name": "Motorrad-Sattler", "entrance": null, "phone": null, "fuel:diesel": null, "payment:uta": null, "fuel:e10": null, "addr:suburb": null, "fuel:octane_95": null, "fuel:octane_98": null, "payment:dkv": null, "opening_hours": null, "addr:country": null, "website": null, "wheelchair:description": null, "wheelchair": null, "email": null, "cuisine": null, "authentication:membership_card": null, "capacity": null, "car": null, "socket:type2": null, "socket:schuko": null }, "geometry": { "type": "Point", "coordinates": [ 9.1143907, 48.7295841 ] } },
{ "type": "Feature", "properties": { "osm_id": 2145874576, "shop": null, "addr:housenumber": "3", "office": null, "name": null, "amenity": null, "brand": null, "operator": null, "bicycle": null, "addr:postcode": null, "addr:street": "Jurastraße", "addr:city": null, "old_name": null, "entrance": "yes", "phone": null, "fuel:diesel": null, "payment:uta": null, "fuel:e10": null, "addr:suburb": null, "fuel:octane_95": null, "fuel:octane_98": null, "payment:dkv": null, "opening_hours": null, "addr:country": null, "website": null, "wheelchair:description": null, "wheelchair": null, "email": null, "cuisine": null, "authentication:membership_card": null, "capacity": null, "car": null, "socket:type2": null, "socket:schuko": null }, "geometry": { "type": "Point", "coordinates": [ 9.1183901, 48.7290785 ] } },
{ "type": "Feature", "properties": { "osm_id": 2528071807, "shop": null, "addr:housenumber": "3", "office": "architect", "name": "Jürgen Schleicher & Kai Beck - freie Architekten", "amenity": null, "brand": null, "operator": null, "bicycle": null, "addr:postcode": "70565", "addr:street": "Jurastraße", "addr:city": "Stuttgart", "old_name": null, "entrance": null, "phone": "+49 711 906900", "fuel:diesel": null, "payment:uta": null, "fuel:e10": null, "addr:suburb": null, "fuel:octane_95": null, "fuel:octane_98": null, "payment:dkv": null, "opening_hours": null, "addr:country": null, "website": null, "wheelchair:description": null, "wheelchair": null, "email": null, "cuisine": null, "authentication:membership_card": null, "capacity": null, "car": null, "socket:type2": null, "socket:schuko": null }, "geometry": { "type": "Point", "coordinates": [ 9.1184035, 48.7290909 ] } },
{ "type": "Feature", "properties": { "osm_id": 4823332821, "shop": null, "addr:housenumber": "6B", "office": null, "name": null, "amenity": null, "brand": null, "operator": null, "bicycle": null, "addr:postcode": "70563", "addr:street": "Fanny-Leicht-Straße", "addr:city": "Stuttgart", "old_name": null, "entrance": null, "phone": null, "fuel:diesel": null, "payment:uta": null, "fuel:e10": null, "addr:suburb": null, "fuel:octane_95": null, "fuel:octane_98": null, "payment:dkv": null, "opening_hours": null, "addr:country": null, "website": null, "wheelchair:description": null, "wheelchair": null, "email": null, "cuisine": null, "authentication:membership_card": null, "capacity": null, "car": null, "socket:type2": null, "socket:schuko": null }, "geometry": { "type": "Point", "coordinates": [ 9.1150959, 48.7303964 ] } },
{ "type": "Feature", "properties": { "osm_id": 4823332822, "shop": null, "addr:housenumber": "27\/1", "office": null, "name": null, "amenity": null, "brand": null, "operator": null, "bicycle": null, "addr:postcode": "70563", "addr:street": "Scharrstraße", "addr:city": "Stuttgart", "old_name": null, "entrance": null, "phone": null, "fuel:diesel": null, "payment:uta": null, "fuel:e10": null, "addr:suburb": null, "fuel:octane_95": null, "fuel:octane_98": null, "payment:dkv": null, "opening_hours": null, "addr:country": null, "website": null, "wheelchair:description": null, "wheelchair": null, "email": null, "cuisine": null, "authentication:membership_card": null, "capacity": null, "car": null, "socket:type2": null, "socket:schuko": null }, "geometry": { "type": "Point", "coordinates": [ 9.1152641, 48.7303479 ] } },
{ "type": "Feature", "properties": { "osm_id": 2145874575, "shop": null, "addr:housenumber": "17", "office": null, "name": null, "amenity": null, "brand": null, "operator": null, "bicycle": null, "addr:postcode": null, "addr:street": "Ernsthaldenstraße", "addr:city": null, "old_name": null, "entrance": "yes", "phone": null, "fuel:diesel": null, "payment:uta": null, "fuel:e10": null, "addr:suburb": null, "fuel:octane_95": null, "fuel:octane_98": null, "payment:dkv": null, "opening_hours": null, "addr:country": null, "website": null, "wheelchair:description": null, "wheelchair": null, "email": null, "cuisine": null, "authentication:membership_card": null, "capacity": null, "car": null, "socket:type2": null, "socket:schuko": null }, "geometry": { "type": "Point", "coordinates": [ 9.1192214, 48.7284278 ] } },
{ "type": "Feature", "properties": { "osm_id": 4980181326, "shop": null, "addr:housenumber": "43", "office": null, "name": null, "amenity": null, "brand": null, "operator": null, "bicycle": null, "addr:postcode": "70565", "addr:street": "Ernsthaldenstraße", "addr:city": "Stuttgart", "old_name": null, "entrance": null, "phone": null, "fuel:diesel": null, "payment:uta": null, "fuel:e10": null, "addr:suburb": null, "fuel:octane_95": null, "fuel:octane_98": null, "payment:dkv": null, "opening_hours": null, "addr:country": null, "website": null, "wheelchair:description": null, "wheelchair": null, "email": null, "cuisine": null, "authentication:membership_card": null, "capacity": null, "car": null, "socket:type2": null, "socket:schuko": null }, "geometry": { "type": "Point", "coordinates": [ 9.1225426, 48.7276954 ] } },
{ "type": "Feature", "properties": { "osm_id": 2121641317, "shop": null, "addr:housenumber": "45", "office": null, "name": null, "amenity": null, "brand": null, "operator": null, "bicycle": null, "addr:postcode": "70565", "addr:street": "Ernsthaldenstraße", "addr:city": "Stuttgart", "old_name": null, "entrance": "yes", "phone": null, "fuel:diesel": null, "payment:uta": null, "fuel:e10": null, "addr:suburb": null, "fuel:octane_95": null, "fuel:octane_98": null, "payment:dkv": null, "opening_hours": null, "addr:country": null, "website": null, "wheelchair:description": null, "wheelchair": null, "email": null, "cuisine": null, "authentication:membership_card": null, "capacity": null, "car": null, "socket:type2": null, "socket:schuko": null }, "geometry": { "type": "Point", "coordinates": [ 9.1225035, 48.7280051 ] } },
{ "type": "Feature", "properties": { "osm_id": 155370903, "shop": "yes", "addr:housenumber": "78", "office": null, "name": "AVIA", "amenity": "fuel", "brand": "Avia", "operator": null, "bicycle": null, "addr:postcode": "70565", "addr:street": "Am Wallgraben", "addr:city": "Stuttgart", "old_name": null, "entrance": null, "phone": null, "fuel:diesel": "yes", "payment:uta": "yes", "fuel:e10": "yes", "addr:suburb": "Vaihingen", "fuel:octane_95": "yes", "fuel:octane_98": "yes", "payment:dkv": "yes", "opening_hours": "Mo-Fr 06:15-20:00; Sa 07:00-20:00; Su 09:00-19:00", "addr:country": "DE", "website": null, "wheelchair:description": null, "wheelchair": null, "email": null, "cuisine": null, "authentication:membership_card": null, "capacity": null, "car": null, "socket:type2": null, "socket:schuko": null }, "geometry": { "type": "Point", "coordinates": [ 9.12389, 48.7277635 ] } },
{ "type": "Feature", "properties": { "osm_id": 2121641322, "shop": null, "addr:housenumber": "47", "office": null, "name": null, "amenity": null, "brand": null, "operator": null, "bicycle": null, "addr:postcode": null, "addr:street": "Ernsthaldenstraße", "addr:city": null, "old_name": null, "entrance": "yes", "phone": null, "fuel:diesel": null, "payment:uta": null, "fuel:e10": null, "addr:suburb": null, "fuel:octane_95": null, "fuel:octane_98": null, "payment:dkv": null, "opening_hours": null, "addr:country": null, "website": null, "wheelchair:description": null, "wheelchair": null, "email": null, "cuisine": null, "authentication:membership_card": null, "capacity": null, "car": null, "socket:type2": null, "socket:schuko": null }, "geometry": { "type": "Point", "coordinates": [ 9.1230623, 48.7278025 ] } },
{ "type": "Feature", "properties": { "osm_id": 3647835711, "shop": null, "addr:housenumber": "49", "office": null, "name": null, "amenity": null, "brand": null, "operator": null, "bicycle": null, "addr:postcode": null, "addr:street": "Ernsthaldenstraße", "addr:city": null, "old_name": null, "entrance": "yes", "phone": null, "fuel:diesel": null, "payment:uta": null, "fuel:e10": null, "addr:suburb": null, "fuel:octane_95": null, "fuel:octane_98": null, "payment:dkv": null, "opening_hours": null, "addr:country": null, "website": null, "wheelchair:description": null, "wheelchair": null, "email": null, "cuisine": null, "authentication:membership_card": null, "capacity": null, "car": null, "socket:type2": null, "socket:schuko": null }, "geometry": { "type": "Point", "coordinates": [ 9.1232407, 48.7279666 ] } },
{ "type": "Feature", "properties": { "osm_id": 255126877, "shop": null, "addr:housenumber": "82", "office": null, "name": "Apotheke am Wallgraben", "amenity": "pharmacy", "brand": null, "operator": "Herr Philipp Martin Rolker", "bicycle": null, "addr:postcode": "70563", "addr:street": "Möhringer Landstraße", "addr:city": "Stuttgart", "old_name": null, "entrance": null, "phone": "+49 711 780213", "fuel:diesel": null, "payment:uta": null, "fuel:e10": null, "addr:suburb": null, "fuel:octane_95": null, "fuel:octane_98": null, "payment:dkv": null, "opening_hours": "Mo-Fr 08:00-13:00, 14:00-18:30; Sa 08:00-13:00", "addr:country": null, "website": "http:\/\/www.apo-am-wallgraben.de\/", "wheelchair:description": "Aufzug befindet sich nicht direkt am Eingang!!!", "wheelchair": "yes", "email": "apo-am-wallgraben@pharma-online.de", "cuisine": null, "authentication:membership_card": null, "capacity": null, "car": null, "socket:type2": null, "socket:schuko": null }, "geometry": { "type": "Point", "coordinates": [ 9.1228519, 48.7296995 ] } },
{ "type": "Feature", "properties": { "osm_id": 5571283634, "shop": "butcher", "addr:housenumber": "11", "office": null, "name": "Eat & Meat Fleischerei", "amenity": null, "brand": null, "operator": null, "bicycle": null, "addr:postcode": "70565", "addr:street": "Wörthstraße", "addr:city": "Stuttgart", "old_name": null, "entrance": null, "phone": null, "fuel:diesel": null, "payment:uta": null, "fuel:e10": null, "addr:suburb": null, "fuel:octane_95": null, "fuel:octane_98": null, "payment:dkv": null, "opening_hours": null, "addr:country": null, "website": null, "wheelchair:description": null, "wheelchair": "no", "email": null, "cuisine": null, "authentication:membership_card": null, "capacity": null, "car": null, "socket:type2": null, "socket:schuko": null }, "geometry": { "type": "Point", "coordinates": [ 9.123373, 48.7296398 ] } },
{ "type": "Feature", "properties": { "osm_id": 5372057361, "shop": null, "addr:housenumber": "100", "office": null, "name": "Ilysia", "amenity": "restaurant", "brand": null, "operator": null, "bicycle": null, "addr:postcode": "70563", "addr:street": "Möhringer Landstraße", "addr:city": "Stuttgart", "old_name": null, "entrance": null, "phone": "+49 711 780 17 56", "fuel:diesel": null, "payment:uta": null, "fuel:e10": null, "addr:suburb": null, "fuel:octane_95": null, "fuel:octane_98": null, "payment:dkv": null, "opening_hours": null, "addr:country": null, "website": "http:\/\/www.ilysia-am-wallgraben.de\/", "wheelchair:description": "1 Stufe am Eingang (größer als 7 cm);Toiletten nicht barierefrei erreichbar (im Keller)", "wheelchair": "no", "email": "info@ilysia-am-wallgraben.de", "cuisine": "greek", "authentication:membership_card": null, "capacity": null, "car": null, "socket:type2": null, "socket:schuko": null }, "geometry": { "type": "Point", "coordinates": [ 9.1252258, 48.7292855 ] } },
{ "type": "Feature", "properties": { "osm_id": 4411340511, "shop": null, "addr:housenumber": "77", "office": null, "name": null, "amenity": "charging_station", "brand": null, "operator": "EnBW", "bicycle": "yes", "addr:postcode": "70563", "addr:street": "Möhringer Landstraße", "addr:city": "Stuttgart", "old_name": null, "entrance": null, "phone": null, "fuel:diesel": null, "payment:uta": null, "fuel:e10": null, "addr:suburb": null, "fuel:octane_95": null, "fuel:octane_98": null, "payment:dkv": null, "opening_hours": null, "addr:country": "DE", "website": null, "wheelchair:description": null, "wheelchair": null, "email": null, "cuisine": null, "authentication:membership_card": "yes", "capacity": "2", "car": "yes", "socket:type2": "2", "socket:schuko": "2" }, "geometry": { "type": "Point", "coordinates": [ 9.1232669, 48.7299451 ] } }
]
}
